NORAD_CAT_ID,OBJECT_NAME,OBJECT_TYPE,EPOCH,MEAN_MOTION,ECCENTRICITY,INCLINATION,RA_OF_ASC_NODE,ARG_OF_PERICENTER,MEAN_ANOMALY,BSTAR,MEAN_MOTION_DOT,MEAN_MOTION_DDOT,TLE_LINE0,TLE_LINE1,TLE_LINE2,SEMIMAJOR_AXIS,PERIOD,APOGEE,PERIGEE,DECAYED
51972.0,STARLINK-3671,PAYLOAD,2022-08-19 14:00:01,15.08797163,0.000137,53.2184,96.535,61.0807,300.1272,0.0020724,0.00032809,0.0,0 STARLINK-3671,1 51972U 22025S   22231.58334491  .00032809  00000-0  20724-2 0  9991,2 51972  53.2184  96.5350 0001370  61.0807 300.1272 15.08797163  1317,6918.011,95.44,540.8240000000002,538.929,0.0
51972.0,STARLINK-3671,PAYLOAD,2022-08-19 22:00:00,15.08809588,0.0001518,53.2184,95.0405,53.8517,318.9067,-0.00032716,-5.487e-05,0.0,0 STARLINK-3671,1 51972U 22025S   22231.91667824 -.00005487  00000-0 -32716-3 0  9996,2 51972  53.2184  95.0405 0001518  53.8517 318.9067 15.08809588 26381,6917.973000000001,95.439,540.888,538.788,0.0
51972.0,STARLINK-3671,PAYLOAD,2022-08-20 14:00:01,15.08812093,0.0001355,53.2185,92.0465,62.3747,333.5121,0.0024711,0.00039229,0.0,0 STARLINK-3671,1 51972U 22025S   22232.58334491  .00039229  00000-0  24711-2 0  9995,2 51972  53.2185  92.0465 0001355  62.3747 333.5121 15.08812093  1308,6917.965999999999,95.439,540.768,538.893,0.0
51972.0,STARLINK-3671,PAYLOAD,2022-08-20 16:00:00,15.08834008,0.0001372,53.2186,91.6727,62.0346,66.7394,0.00018125,2.597e-05,0.0,0 STARLINK-3671,1 51972U 22025S   22232.66667824  .00002597  00000-0  18125-3 0  9994,2 51972  53.2186  91.6727 0001372  62.0346  66.7394 15.08834008 26502,6917.899,95.438,540.7130000000002,538.815,0.0
51972.0,STARLINK-3671,PAYLOAD,2022-08-20 22:00:00,15.08829386,0.0001509,53.2184,90.552,55.4169,352.0461,-0.00011519,-2.12e-05,0.0,0 STARLINK-3671,1 51972U 22025S   22232.91667824 -.00002120  00000-0 -11519-3 0  9996,2 51972  53.2184  90.5520 0001509  55.4169 352.0461 15.08829386  1300,6917.913000000001,95.438,540.822,538.734,0.0
51972.0,STARLINK-3671,PAYLOAD,2022-08-21 14:00:01,15.08830396,0.0001378,53.2182,87.5579,64.6286,5.9992,0.0017704999999999,0.00027994,0.0,0 STARLINK-3671,1 51972U 22025S   22233.58334491  .00027994  00000-0  17705-2 0  9997,2 51972  53.2182  87.5579 0001378  64.6286   5.9992 15.08830396  1300,6917.91,95.438,540.7280000000002,538.821,0.0
51972.0,STARLINK-3671,PAYLOAD,2022-08-21 22:00:00,15.08838568,0.0001523,53.2181,86.0635,57.3878,24.8357,6.874600000000001e-05,8.06e-06,0.0,0 STARLINK-3671,1 51972U 22025S   22233.91667824  .00000806  00000-0  68746-4 0  9999,2 51972  53.2181  86.0635 0001523  57.3878  24.8357 15.08838568  1308,6917.885,95.438,540.803,538.696,0.0
51972.0,STARLINK-3671,PAYLOAD,2022-08-22 12:00:00,15.08827835,0.0001384,53.2176,83.4431,65.1895,307.339,0.0030458,0.00048503,0.0,0 STARLINK-3671,1 51972U 22025S   22234.50001157  .00048503  00000-0  30458-2 0  9999,2 51972  53.2176  83.4431 0001384  65.1895 307.3390 15.08827835  1309,6917.918000000002,95.438,540.74,538.825,0.0
51972.0,STARLINK-3671,PAYLOAD,2022-08-22 22:00:00,15.0885088,0.0001585,53.2177,81.5746,58.3141,58.7191,-8.9701e-05,-1.716e-05,0.0,0 STARLINK-3671,1 51972U 22025S   22234.91667824 -.00001716  00000-0 -89701-4 0  9997,2 51972  53.2177  81.5746 0001585  58.3141  58.7191 15.08850880  1301,6917.847,95.437,540.809,538.616,0.0
51972.0,STARLINK-3671,PAYLOAD,2022-08-23 06:00:00,15.08862513,0.0001556,53.2175,80.0772,60.9833,67.6563,-0.003611,-0.00057335,0.0,0 STARLINK-3671,1 51972U 22025S   22235.25001157 -.00057335  00000-0 -36110-2 0  9998,2 51972  53.2175  80.0772 0001556  60.9833  67.6563 15.08862513 26896,6917.812,95.436,540.753,538.6,0.0
51972.0,STARLINK-3671,PAYLOAD,2022-08-23 14:00:01,15.08833998,0.0001605,53.2177,78.5801,68.0513,72.182,0.00069329,0.00010761,0.0,0 STARLINK-3671,1 51972U 22025S   22235.58334491  .00010761  00000-0  69329-3 0  9993,2 51972  53.2177  78.5801 0001605  68.0513  72.1820 15.08833998  1303,6917.899,95.438,540.874,538.653,0.0
51972.0,STARLINK-3671,PAYLOAD,2022-08-23 22:00:01,15.08825673,0.0001723,53.2177,77.0856,60.0502,91.8412,0.0010554,0.00016542,0.0,0 STARLINK-3671,1 51972U 22025S   22235.91668981  .00016542  00000-0  10554-2 0  9992,2 51972  53.2177  77.0856 0001723  60.0502  91.8412 15.08825673 26996,6917.924,95.438,540.981,538.597,0.0
51972.0,STARLINK-3671,PAYLOAD,2022-08-24 14:00:01,15.08847748,0.0001669,53.2178,74.0911,67.8358,107.1698,0.00031154,4.675e-05,0.0,0 STARLINK-3671,1 51972U 22025S   22236.58334491  .00004675  00000-0  31154-3 0  9996,2 51972  53.2178  74.0911 0001669  67.8358 107.1698 15.08847748  1301,6917.857,95.437,540.876,538.567,0.0
51972.0,STARLINK-3671,PAYLOAD,2022-08-24 22:00:00,15.08832689,0.0001794,53.2178,72.5965,59.8224,126.7936,0.0016049,0.00025341,0.0,0 STARLINK-3671,1 51972U 22025S   22236.91667824  .00025341  00000-0  16049-2 0  9990,2 51972  53.2178  72.5965 0001794  59.8224 126.7936 15.08832689  1305,6917.903,95.438,541.009,538.5269999999998,0.0
51972.0,STARLINK-3671,PAYLOAD,2022-08-25 06:00:02,15.08868766,0.0001656,53.2178,71.0986,62.6892,135.5841,-0.0027256999999999,-0.00043441,0.0,0 STARLINK-3671,1 51972U 22025S   22237.25002315 -.00043441  00000-0 -27257-2 0  9992,2 51972  53.2178  71.0986 0001656  62.6892 135.5841 15.08868766 27195,6917.792,95.436,540.803,538.512,0.0
51972.0,STARLINK-3671,PAYLOAD,2022-08-25 14:00:01,15.08814006,0.0001609,53.2178,69.6026,64.7971,145.0026,0.0042424,0.00067832,0.0,0 STARLINK-3671,1 51972U 22025S   22237.58334491  .00067832  00000-0  42424-2 0  9992,2 51972  53.2178  69.6026 0001609  64.7971 145.0026 15.08814006  1306,6917.96,95.439,540.938,538.712,0.0
51972.0,STARLINK-3671,PAYLOAD,2022-08-25 22:00:00,15.08807602,0.0001719,53.2181,68.1072,57.6979,163.683,0.0020257,0.0003207,0.0,0 STARLINK-3671,1 51972U 22025S   22237.91667824  .00032070  00000-0  20257-2 0  9994,2 51972  53.2181  68.1072 0001719  57.6979 163.6830 15.08807602  1309,6917.979,95.44,541.034,538.655,0.0
51972.0,STARLINK-3671,PAYLOAD,2022-08-26 06:00:00,15.08837158,0.0001583,53.2182,66.6094,61.6737,171.2778,-0.0011940999999999,-0.0001924,0.0,0 STARLINK-3671,1 51972U 22025S   22238.25001157 -.00019240  00000-0 -11941-2 0  9999,2 51972  53.2182  66.6094 0001583  61.6737 171.2778 15.08837158 27340,6917.889,95.438,540.849,538.659,0.0
51972.0,STARLINK-3671,PAYLOAD,2022-08-26 14:00:01,15.08842318,0.00016,53.2184,65.1128,66.6509,177.942,-0.00032981,-5.533e-05,0.0,0 STARLINK-3671,1 51972U 22025S   22238.58335648 -.00005533  00000-0 -32981-3 0  9998,2 51972  53.2184  65.1128 0001600  66.6509 177.9420 15.08842318  1305,6917.873000000001,95.437,540.845,538.631,0.0
51972.0,STARLINK-3671,PAYLOAD,2022-08-26 22:00:00,15.08817867,0.0001724,53.2183,63.618,58.4536,197.6769,0.0023501,0.00037289,0.0,0 STARLINK-3671,1 51972U 22025S   22238.91667824  .00037289  00000-0  23501-2 0  9997,2 51972  53.2183  63.6180 0001724  58.4536 197.6769 15.08817867 27440,6917.948,95.439,541.006,538.62,0.0
51972.0,STARLINK-3671,PAYLOAD,2022-08-27 14:00:01,15.08857481,0.0001573,53.2185,60.6237,67.7231,211.5846,-0.00063626,-0.00010405,0.0,0 STARLINK-3671,1 51972U 22025S   22239.58334491 -.00010405  00000-0 -63626-3 0  9998,2 51972  53.2185  60.6237 0001573  67.7231 211.5846 15.08857481  1304,6917.8269999999975,95.436,540.78,538.604,0.0
51972.0,STARLINK-3671,PAYLOAD,2022-08-27 22:00:00,15.08829432,0.0001688,53.2184,59.1287,59.6202,231.3037,0.0025591999999999,0.00040665,0.0,0 STARLINK-3671,1 51972U 22025S   22239.91667824  .00040665  00000-0  25592-2 0  9992,2 51972  53.2184  59.1287 0001688  59.6202 231.3037 15.08829432  1303,6917.913000000001,95.438,540.945,538.61,0.0
51972.0,STARLINK-3671,PAYLOAD,2022-08-28 14:00:01,15.08887185,0.000149,53.2185,56.1345,68.1233,246.0111,-0.0033951999999999,-0.00053987,0.0,0 STARLINK-3671,1 51972U 22025S   22240.58334491 -.00053987  00000-0 -33952-2 0  9990,2 51972  53.2185  56.1345 0001490  68.1233 246.0111 15.08887185 27691,6917.736,95.435,540.632,538.57,0.0
51972.0,STARLINK-3671,PAYLOAD,2022-08-28 22:00:00,15.08815905,0.0001553,53.2182,54.6395,59.0726,266.6956,0.0026593,0.00042261,0.0,0 STARLINK-3671,1 51972U 22025S   22240.91667824  .00042261  00000-0  26593-2 0  9990,2 51972  53.2182  54.6395 0001553  59.0726 266.6956 15.08815905  1308,6917.954000000002,95.439,540.893,538.745,0.0
51972.0,STARLINK-3671,PAYLOAD,2022-08-29 08:00:01,15.08828348,0.0001327,53.218,52.7671,66.8175,3.439,4.0301e-05,3.53e-06,0.0,0 STARLINK-3671,1 51972U 22025S   22241.33334491  .00000353  00000-0  40301-4 0  9999,2 51972  53.2180  52.7671 0001327  66.8175   3.4390 15.08828348 27802,6917.916,95.438,540.6990000000002,538.863,0.0
51972.0,STARLINK-3671,PAYLOAD,2022-08-29 14:00:01,15.08838899,0.0001349,53.2183,51.6456,66.4635,282.4772,-0.0022007,-0.0003514,0.0,0 STARLINK-3671,1 51972U 22025S   22241.58334491 -.00035140  00000-0 -22007-2 0  9991,2 51972  53.2183  51.6456 0001349  66.4635 282.4772 15.08838899  1307,6917.884,95.438,540.682,538.816,0.0
51972.0,STARLINK-3671,PAYLOAD,2022-08-29 22:00:00,15.08799343,0.000143,53.2181,50.1506,57.154,303.3722,0.0027841,0.0004424999999999,0.0,0 STARLINK-3671,1 51972U 22025S   22241.91667824  .00044250  00000-0  27841-2 0  9998,2 51972  53.2181  50.1506 0001430  57.1540 303.3722 15.08799343  1317,6918.005,95.44,540.859,538.88,0.0
51972.0,STARLINK-3671,PAYLOAD,2022-08-30 14:00:01,15.08846496,0.0001363,53.2182,47.1568,65.0943,318.5686,-0.0015852,-0.00025432,0.0,0 STARLINK-3671,1 51972U 22025S   22242.58334491 -.00025432  00000-0 -15852-2 0  9995,2 51972  53.2182  47.1568 0001363  65.0943 318.5686 15.08846496  1300,6917.861,95.437,540.668,538.783,0.0
51972.0,STARLINK-3671,PAYLOAD,2022-08-30 16:00:00,15.08842663,0.0001406999999999,53.2181,46.7832,62.0496,54.51300000000001,-0.0015502,-0.00024876,0.0,0 STARLINK-3671,1 51972U 22025S   22242.66667824 -.00024876  00000-0 -15502-2 0  9996,2 51972  53.2181  46.7832 0001407  62.0496  54.5130 15.08842663 28017,6917.871999999999,95.437,540.711,538.764,0.0
